[
    {
        "Altitude(m)": 607897.6133915609,
        "Argument of Periapsis(deg)": 0.0,
        "Eccentricity": 0.0,
        "Inclination(deg)": 60.0,
        "Latitude(deg)": -14.292927508286313,
        "Longitude(deg)": 151.61873564501067,
        "Mean Anomaly(deg)": -16.363600000000087,
        "RAAN(deg)": 260.0,
        "Satellite Name": "Test1 1165",
        "Satellite Number": 1165,
        "Semi-Major Axis(m)": 6980739.136638005,
        "Time(s)": 0
    },
    {
        "Altitude(m)": 607750.8147864596,
        "Argument of Periapsis(deg)": 0.00010418945913296404,
        "Eccentricity": 0.0,
        "Inclination(deg)": 60.0,
        "Latitude(deg)": -13.758769295499954,
        "Longitude(deg)": 151.90580532020383,
        "Mean Anomaly(deg)": -15.743493854538235,
        "RAAN(deg)": 259.99957995086027,
        "Satellite Name": "Test1 1165",
        "Satellite Number": 1165,
        "Semi-Major Axis(m)": 6980739.136638005,
        "Time(s)": 10
    }
]